{
  "type": "FeatureCollection",
  "features": [
    {
      "type": "Feature",
      "properties": {
        "norad_id": 15362,
        "name": "NOVA 3",
        "group": "nnss",
        "lat": -59.629606614267395,
        "lon": -99.71090486518428,
        "alt_km": 1184.7754040334175,
        "timestamp": "2025-12-09T14:52:26.430390+00:00",
        "meta_object_name": "NOVA 3",
        "meta_object_id": "1984-110A",
        "meta_epoch": "2025-12-09T06:40:21.383328",
        "meta_mean_motion": 13.23043997,
        "meta_eccentricity": 0.00307571,
        "meta_inclination": 90.1223,
        "meta_ra_of_asc_node": 80.4939,
        "meta_arg_of_pericenter": 341.7422,
        "meta_mean_anomaly": 71.4912,
        "meta_ephemeris_type": 0,
        "meta_classification_type": "U",
        "meta_norad_cat_id": 15362,
        "meta_element_set_no": 999,
        "meta_rev_at_epoch": 98653,
        "meta_bstar": 0.00021749854,
        "meta_mean_motion_dot": 1e-06,
        "meta_mean_motion_ddot": 0,
        "tle_line1": "1 15362U 84110A   25343.27802527  .00000100  00000+0  21750-3 0  9999",
        "tle_line2": "2 15362  90.1223  80.4939 0030757 341.7422  71.4912 13.23043997986530"
      },
      "geometry": {
        "type": "Point",
        "coordinates": [
          -99.71090486518428,
          -59.629606614267395
        ]
      }
    },
    {
      "type": "Feature",
      "properties": {
        "norad_id": 15935,
        "name": "OSCAR 30",
        "group": "nnss",
        "lat": 3.4632286842340783,
        "lon": -80.19405997046863,
        "alt_km": 1110.5945275158974,
        "timestamp": "2025-12-09T14:52:26.430401+00:00",
        "meta_object_name": "OSCAR 30",
        "meta_object_id": "1985-066A",
        "meta_epoch": "2025-12-09T07:06:20.232864",
        "meta_mean_motion": 13.36077505,
        "meta_eccentricity": 0.01694084,
        "meta_inclination": 90.1649,
        "meta_ra_of_asc_node": 99.7907,
        "meta_arg_of_pericenter": 93.5139,
        "meta_mean_anomaly": 325.0204,
        "meta_ephemeris_type": 0,
        "meta_classification_type": "U",
        "meta_norad_cat_id": 15935,
        "meta_element_set_no": 999,
        "meta_rev_at_epoch": 96407,
        "meta_bstar": 0.0002821144,
        "meta_mean_motion_dot": 1.67e-06,
        "meta_mean_motion_ddot": 0,
        "tle_line1": "1 15935U 85066A   25343.29606751  .00000167  00000+0  28211-3 0  9991",
        "tle_line2": "2 15935  90.1649  99.7907 0169408  93.5139 325.0204 13.36077505964072"
      },
      "geometry": {
        "type": "Point",
        "coordinates": [
          -80.19405997046863,
          3.4632286842340783
        ]
      }
    },
    {
      "type": "Feature",
      "properties": {
        "norad_id": 15936,
        "name": "OSCAR 24",
        "group": "nnss",
        "lat": -72.36053158087678,
        "lon": -88.3124733859634,
        "alt_km": 1245.6856803474338,
        "timestamp": "2025-12-09T14:52:26.430412+00:00",
        "meta_object_name": "OSCAR 24",
        "meta_object_id": "1985-066B",
        "meta_epoch": "2025-12-09T06:43:42.760128",
        "meta_mean_motion": 13.35935065,
        "meta_eccentricity": 0.01704679,
        "meta_inclination": 90.1788,
        "meta_ra_of_asc_node": 92.2442,
        "meta_arg_of_pericenter": 99.9937,
        "meta_mean_anomaly": 320.128,
        "meta_ephemeris_type": 0,
        "meta_classification_type": "U",
        "meta_norad_cat_id": 15936,
        "meta_element_set_no": 999,
        "meta_rev_at_epoch": 96597,
        "meta_bstar": 0.00024994723,
        "meta_mean_motion_dot": 1.49e-06,
        "meta_mean_motion_ddot": 0,
        "tle_line1": "1 15936U 85066B   25343.28035602  .00000149  00000+0  24995-3 0  9997",
        "tle_line2": "2 15936  90.1788  92.2442 0170467  99.9937 320.1280 13.35935065965975"
      },
      "geometry": {
        "type": "Point",
        "coordinates": [
          -88.3124733859634,
          -72.36053158087678
        ]
      }
    },
    {
      "type": "Feature",
      "properties": {
        "norad_id": 17070,
        "name": "POLAR BEAR",
        "group": "nnss",
        "lat": 5.9869966339682925,
        "lon": -176.0613737077984,
        "alt_km": 998.8277340392997,
        "timestamp": "2025-12-09T14:52:26.430423+00:00",
        "meta_object_name": "POLAR BEAR",
        "meta_object_id": "1986-088A",
        "meta_epoch": "2025-12-09T03:11:16.322784",
        "meta_mean_motion": 13.75249676,
        "meta_eccentricity": 0.00407509,
        "meta_inclination": 89.6177,
        "meta_ra_of_asc_node": 183.9181,
        "meta_arg_of_pericenter": 129.7063,
        "meta_mean_anomaly": 347.5564,
        "meta_ephemeris_type": 0,
        "meta_classification_type": "U",
        "meta_norad_cat_id": 17070,
        "meta_element_set_no": 999,
        "meta_rev_at_epoch": 95929,
        "meta_bstar": 0.00014111129,
        "meta_mean_motion_dot": 1.48e-06,
        "meta_mean_motion_ddot": 0,
        "tle_line1": "1 17070U 86088A   25343.13282781  .00000148  00000+0  14111-3 0  9997",
        "tle_line2": "2 17070  89.6177 183.9181 0040750 129.7063 347.5564 13.75249676959298"
      },
      "geometry": {
        "type": "Point",
        "coordinates": [
          -176.0613737077984,
          5.9869966339682925
        ]
      }
    },
    {
      "type": "Feature",
      "properties": {
        "norad_id": 18361,
        "name": "OSCAR 27",
        "group": "nnss",
        "lat": -64.57611228552577,
        "lon": -101.63209570515419,
        "alt_km": 1023.2219081729354,
        "timestamp": "2025-12-09T14:52:26.430434+00:00",
        "meta_object_name": "OSCAR 27",
        "meta_object_id": "1987-080A",
        "meta_epoch": "2025-12-09T06:30:57.340800",
        "meta_mean_motion": 13.44905724,
        "meta_eccentricity": 0.01026661,
        "meta_inclination": 90.3742,
        "meta_ra_of_asc_node": 79.1426,
        "meta_arg_of_pericenter": 233.8462,
        "meta_mean_anomaly": 125.3154,
        "meta_ephemeris_type": 0,
        "meta_classification_type": "U",
        "meta_norad_cat_id": 18361,
        "meta_element_set_no": 999,
        "meta_rev_at_epoch": 87510,
        "meta_bstar": 0.00031081347,
        "meta_mean_motion_dot": 1.96e-06,
        "meta_mean_motion_ddot": 0,
        "tle_line1": "1 18361U 87080A   25343.27149700  .00000196  00000+0  31081-3 0  9990",
        "tle_line2": "2 18361  90.3742  79.1426 0102666 233.8462 125.3154 13.44905724875105"
      },
      "geometry": {
        "type": "Point",
        "coordinates": [
          -101.63209570515419,
          -64.57611228552577
        ]
      }
    },
    {
      "type": "Feature",
      "properties": {
        "norad_id": 18362,
        "name": "OSCAR 29",
        "group": "nnss",
        "lat": -81.74552335829235,
        "lon": -102.97584796531079,
        "alt_km": 1023.0300293914916,
        "timestamp": "2025-12-09T14:52:26.430446+00:00",
        "meta_object_name": "OSCAR 29",
        "meta_object_id": "1987-080B",
        "meta_epoch": "2025-12-09T06:41:55.137696",
        "meta_mean_motion": 13.44447552,
        "meta_eccentricity": 0.01037775,
        "meta_inclination": 90.3754,
        "meta_ra_of_asc_node": 79.6015,
        "meta_arg_of_pericenter": 257.2227,
        "meta_mean_anomaly": 156.6742,
        "meta_ephemeris_type": 0,
        "meta_classification_type": "U",
        "meta_norad_cat_id": 18362,
        "meta_element_set_no": 999,
        "meta_rev_at_epoch": 87463,
        "meta_bstar": 0.00028124544,
        "meta_mean_motion_dot": 1.76e-06,
        "meta_mean_motion_ddot": 0,
        "tle_line1": "1 18362U 87080B   25343.27911039  .00000176  00000+0  28125-3 0  9996",
        "tle_line2": "2 18362  90.3754  79.6015 0103777 257.2227 156.6742 13.44447552874638"
      },
      "geometry": {
        "type": "Point",
        "coordinates": [
          -102.97584796531079,
          -81.74552335829235
        ]
      }
    },
    {
      "type": "Feature",
      "properties": {
        "norad_id": 19070,
        "name": "OSCAR 23",
        "group": "nnss",
        "lat": -45.23660497379878,
        "lon": -164.02832687617695,
        "alt_km": 1046.4025158401319,
        "timestamp": "2025-12-09T14:52:26.430457+00:00",
        "meta_object_name": "OSCAR 23",
        "meta_object_id": "1988-033A",
        "meta_epoch": "2025-12-09T03:13:56.989632",
        "meta_mean_motion": 13.27786357,
        "meta_eccentricity": 0.01892255,
        "meta_inclination": 90.3215,
        "meta_ra_of_asc_node": 16.2809,
        "meta_arg_of_pericenter": 189.9548,
        "meta_mean_anomaly": 236.6533,
        "meta_ephemeris_type": 0,
        "meta_classification_type": "U",
        "meta_norad_cat_id": 19070,
        "meta_element_set_no": 999,
        "meta_rev_at_epoch": 82205,
        "meta_bstar": 0.00017797339,
        "meta_mean_motion_dot": 9.7e-07,
        "meta_mean_motion_ddot": 0,
        "tle_line1": "1 19070U 88033A   25343.13468738  .00000097  00000+0  17797-3 0  9995",
        "tle_line2": "2 19070  90.3215  16.2809 0189225 189.9548 236.6533 13.27786357822050"
      },
      "geometry": {
        "type": "Point",
        "coordinates": [
          -164.02832687617695,
          -45.23660497379878
        ]
      }
    }
  ]
}